[{"OBJECT_NAME":"STARLINK-35673","OBJECT_ID":"2025-263H","EPOCH":"2026-03-09T04:39:26.598240","MEAN_MOTION":15.27600433,"ECCENTRICITY":0.00016278,"INCLINATION":43.0002,"RA_OF_ASC_NODE":353.4564,"ARG_OF_PERICENTER":281.1193,"MEAN_ANOMALY":78.9475,"EPHEMERIS_TYPE":0,"CLASSIFICATION_TYPE":"U","NORAD_CAT_ID":66492,"ELEMENT_SET_NO":999,"REV_AT_EPOCH":1882,"BSTAR":0.0014748594,"MEAN_MOTION_DOT":0.00040572,"MEAN_MOTION_DDOT":0},{"OBJECT_NAME":"OBJECT N","OBJECT_ID":"2019-093N","EPOCH":"2026-03-09T21:41:56.087232","MEAN_MOTION":15.29897693,"ECCENTRICITY":0.0006278,"INCLINATION":98.0505,"RA_OF_ASC_NODE":226.9456,"ARG_OF_PERICENTER":33.3806,"MEAN_ANOMALY":326.7828,"EPHEMERIS_TYPE":0,"CLASSIFICATION_TYPE":"U","NORAD_CAT_ID":44891,"ELEMENT_SET_NO":999,"REV_AT_EPOCH":33957,"BSTAR":0.0010567776,"MEAN_MOTION_DOT":0.00030617,"MEAN_MOTION_DDOT":0}]
